NORAD_CAT_ID,OBJECT_NAME,OBJECT_TYPE,EPOCH,MEAN_MOTION,ECCENTRICITY,INCLINATION,RA_OF_ASC_NODE,ARG_OF_PERICENTER,MEAN_ANOMALY,BSTAR,MEAN_MOTION_DOT,MEAN_MOTION_DDOT,TLE_LINE0,TLE_LINE1,TLE_LINE2,SEMIMAJOR_AXIS,PERIOD,APOGEE,PERIGEE,DECAYED
56772.0,STARLINK-6275,PAYLOAD,2023-10-07 13:26:51,14.98323551,0.0002885,70.0,73.6391,264.461,95.622,0.00011413,1.269e-05,0.0,0 STARLINK-6275,1 56772U 23078F   23280.56032396  .00001269  00000-0  11413-3 0  9997,2 56772  70.0000  73.6391 0002885 264.4610  95.6220 14.98323551 19758,6950.213,96.107,574.083,570.073,0.0
56772.0,STARLINK-6275,PAYLOAD,2023-10-07 19:51:24,14.98327515,0.0002949,70.0,72.9663,267.5056,92.5766,0.00013048,1.464e-05,0.0,0 STARLINK-6275,1 56772U 23078F   23280.82736210  .00001464  00000-0  13048-3 0  9995,2 56772  70.0000  72.9663 0002949 267.5056  92.5766 14.98327515 19790,6950.201,96.107,574.115,570.016,0.0
56772.0,STARLINK-6275,PAYLOAD,2023-10-08 10:16:36,14.98327051,0.0003011,70.0,71.4486,264.6172,95.4644,5.7837e-05,5.97e-06,0.0,0 STARLINK-6275,1 56772U 23078F   23281.42820526  .00000597  00000-0  57837-4 0  9997,2 56772  70.0000  71.4486 0003011 264.6172  95.4644 14.98327051 20148,6950.202,96.107,574.16,569.974,0.0
56772.0,STARLINK-6275,PAYLOAD,2023-10-08 13:28:53,14.98326737,0.0003068,69.9998,71.1126,266.4054,93.6754,4.7572e-05,4.75e-06,0.0,0 STARLINK-6275,1 56772U 23078F   23281.56172605  .00000475  00000-0  47572-4 0  9990,2 56772  69.9998  71.1126 0003068 266.4054  93.6754 14.98326737 19904,6950.203,96.107,574.2,569.936,0.0
56772.0,STARLINK-6275,PAYLOAD,2023-10-08 19:53:25,14.98329799,0.0002952,70.0003,70.4404,269.3632,90.7189,8.705e-05,9.46e-06,0.0,0 STARLINK-6275,1 56772U 23078F   23281.82876362  .00000946  00000-0  87050-4 0  9998,2 56772  70.0003  70.4404 0002952 269.3632  90.7189 14.98329799 19945,6950.194,96.107,574.11,570.007,0.0
56772.0,STARLINK-6275,PAYLOAD,2023-10-09 13:30:54,14.98329041,0.0002864,70.0006,68.5892,270.8113,89.2718,-1.7116e-05,-2.97e-06,0.0,0 STARLINK-6275,1 56772U 23078F   23282.56312717 -.00000297  00000-0 -17116-4 0  9996,2 56772  70.0006  68.5892 0002864 270.8113  89.2718 14.98329041 20055,6950.196,96.107,574.051,570.07,0.0
56772.0,STARLINK-6275,PAYLOAD,2023-10-09 18:19:18,14.98333606,0.0002888,70.0003,68.0845,271.2196,88.8632,2.4426e-05,1.98e-06,0.0,0 STARLINK-6275,1 56772U 23078F   23282.76340291  .00000198  00000-0  24426-4 0  9996,2 56772  70.0003  68.0845 0002888 271.2196  88.8632 14.98333606 20341,6950.182,96.107,574.054,570.04,0.0
56772.0,STARLINK-6275,PAYLOAD,2023-10-09 19:55:25,14.9833522,0.0002856,70.0004,67.9161,271.0891,88.9941,4.4321e-05,4.36e-06,0.0,0 STARLINK-6275,1 56772U 23078F   23282.83016121  .00000436  00000-0  44321-4 0  9997,2 56772  70.0004  67.9161 0002856 271.0891  88.9941 14.98335220 20096,6950.177,96.107,574.027,570.057,0.0
56772.0,STARLINK-6275,PAYLOAD,2023-10-10 13:32:54,14.98330671,0.0002875,70.0009,66.0647,273.6822,86.4008,1.5295e-05,9e-07,0.0,0 STARLINK-6275,1 56772U 23078F   23283.56452360  .00000090  00000-0  15295-4 0  9991,2 56772  70.0009  66.0647 0002875 273.6822  86.4008 14.98330671 20208,6950.191,96.107,574.054,570.058,0.0
56772.0,STARLINK-6275,PAYLOAD,2023-10-10 18:21:18,14.98333836,0.0002755,70.0008,65.5599,268.8849,91.1995,4.5801e-05,4.54e-06,0.0,0 STARLINK-6275,1 56772U 23078F   23283.76480017  .00000454  00000-0  45801-4 0  9993,2 56772  70.0008  65.5599 0002755 268.8849  91.1995 14.98333836 20494,6950.181,96.107,573.961,570.131,0.0
56772.0,STARLINK-6275,PAYLOAD,2023-10-10 19:57:26,14.98335047,0.0002819,70.0009,65.3915,270.5716,89.512,6.8011e-05,7.19e-06,0.0,0 STARLINK-6275,1 56772U 23078F   23283.83155863  .00000719  00000-0  68011-4 0  9991,2 56772  70.0009  65.3915 0002819 270.5716  89.5120 14.98335047 20249,6950.177,96.107,574.002,570.083,0.0
56772.0,STARLINK-6275,PAYLOAD,2023-10-11 10:22:39,14.98328364,0.00028,70.0017,63.8773,271.8768,88.207,-1.277e-05,-2.45e-06,0.0,0 STARLINK-6275,1 56772U 23078F   23284.43240476 -.00000245  00000-0 -12770-4 0  9990,2 56772  70.0017  63.8773 0002800 271.8768  88.2070 14.98328364 20596,6950.198,96.107,574.009,570.117,0.0
56772.0,STARLINK-6275,PAYLOAD,2023-10-11 13:34:55,14.98332712,0.0002709,70.0015,63.5405,272.747,87.3379,-0.0001297,-1.64e-05,0.0,0 STARLINK-6275,1 56772U 23078F   23284.56592524 -.00001640  00000-0 -12970-3 0  9999,2 56772  70.0015  63.5405 0002709 272.7470  87.3379 14.98332712 20359,6950.185,96.107,573.932,570.167,0.0
56772.0,STARLINK-6275,PAYLOAD,2023-10-12 10:24:40,14.98334745,0.0002782,70.0016,61.3527,269.3423,90.7417,-8.3355e-05,-1.087e-05,0.0,0 STARLINK-6275,1 56772U 23078F   23285.43380266 -.00001087  00000-0 -83355-4 0  9995,2 56772  70.0016  61.3527 0002782 269.3423  90.7417 14.98334745 20744,6950.178,96.107,573.977,570.11,0.0
56772.0,STARLINK-6275,PAYLOAD,2023-10-12 13:36:56,14.98326837,0.0002778,70.0016,61.0161,268.2331,91.851,2.1062e-05,1.58e-06,0.0,0 STARLINK-6275,1 56772U 23078F   23285.56732429  .00000158  00000-0  21062-4 0  9994,2 56772  70.0016  61.0161 0002778 268.2331  91.8510 14.98326837 20509,6950.203,96.107,573.998,570.137,0.0
56772.0,STARLINK-6275,PAYLOAD,2023-10-12 18:25:20,14.98367157,0.0002876,70.0016,60.511,266.2831,93.7999,-0.00061527,-7.434e-05,0.0,0 STARLINK-6275,1 56772U 23078F   23285.76759296 -.00007434  00000-0 -61527-3 0  9992,2 56772  70.0016  60.5110 0002876 266.2831  93.7999 14.98367157 20792,6950.078,96.105,573.942,569.944,0.0
56772.0,STARLINK-6275,PAYLOAD,2023-10-13 02:26:01,14.9833252,0.0002848,70.0016,59.6699,269.9403,90.1429,-2.9868e-05,-4.49e-06,0.0,0 STARLINK-6275,1 56772U 23078F   23286.10140158 -.00000449  00000-0 -29868-4 0  9994,2 56772  70.0016  59.6699 0002848 269.9403  90.1429 14.98332520 20848,6950.185,96.107,574.03,570.071,0.0
56772.0,STARLINK-6275,PAYLOAD,2023-10-13 13:38:57,14.98325744,0.0002846,70.0014,58.4914,271.5424,88.5409,1.1728e-05,4.7e-07,0.0,0 STARLINK-6275,1 56772U 23078F   23286.56872551  .00000047  00000-0  11728-4 0  9991,2 56772  70.0014  58.4914 0002846 271.5424  88.5409 14.98325744 20651,6950.206,96.107,574.049,570.093,0.0
56772.0,STARLINK-6275,PAYLOAD,2023-10-13 18:27:21,14.98329428,0.0002767,70.0016,57.9867,270.3625,89.7217,7.8777e-05,8.47e-06,0.0,0 STARLINK-6275,1 56772U 23078F   23286.76900149  .00000847  00000-0  78777-4 0  9993,2 56772  70.0016  57.9867 0002767 270.3625  89.7217 14.98329428 20682,6950.195,96.107,573.983,570.137,0.0
56772.0,STARLINK-6275,PAYLOAD,2023-10-14 02:28:01,14.98334863,0.0003404,70.0004,57.1428,272.1866,87.8903,4.3729e-06,-4.1e-07,0.0,0 STARLINK-6275,1 56772U 23078F   23287.10279755 -.00000041  00000-0  43729-5 0  9991,2 56772  70.0004  57.1428 0003404 272.1866  87.8903 14.98334863 20994,6950.178,96.107,574.409,569.677,0.0
56772.0,STARLINK-6275,PAYLOAD,2023-10-14 13:40:58,14.98330042,0.0003015,70.001,55.9653,272.9947,87.0867,-5.3077e-06,-1.56e-06,0.0,0 STARLINK-6275,1 56772U 23078F   23287.57012227 -.00000156  00000-0 -53077-5 0  9996,2 56772  70.0010  55.9653 0003015 272.9947  87.0867 14.98330042 20809,6950.193,96.107,574.153,569.962,0.0
56772.0,STARLINK-6275,PAYLOAD,2023-10-14 18:29:22,14.98333201,0.0002977,70.0012,55.4603,272.368,87.7138,3.8519e-05,3.67e-06,0.0,0 STARLINK-6275,1 56772U 23078F   23287.77039879  .00000367  00000-0  38519-4 0  9995,2 56772  70.0012  55.4603 0002977 272.3680  87.7138 14.98333201 20836,6950.183,96.107,574.117,569.979,0.0
56772.0,STARLINK-6275,PAYLOAD,2023-10-15 10:30:43,14.98321062,0.0003016,70.0016,53.7769,272.4252,87.6562,1.0434e-05,3.1e-07,0.0,0 STARLINK-6275,1 56772U 23078F   23288.43800753  .00000031  00000-0  10434-4 0  9990,2 56772  70.0016  53.7769 0003016 272.4252  87.6562 14.98321062 21197,6950.221,96.108,574.182,569.989,0.0
56772.0,STARLINK-6275,PAYLOAD,2023-10-15 13:43:00,14.98323959,0.0002929,70.0016,53.4403,273.1792,86.9032,-4.5198e-05,-6.32e-06,0.0,0 STARLINK-6275,1 56772U 23078F   23288.57152781 -.00000632  00000-0 -45198-4 0  9990,2 56772  70.0016  53.4403 0002929 273.1792  86.9032 14.98323959 20952,6950.212,96.107,574.112,570.041,0.0
56772.0,STARLINK-6275,PAYLOAD,2023-10-15 18:31:23,14.98327766,0.0002866,70.0016,52.9362,269.7655,90.3175,1.7342e-05,1.14e-06,0.0,0 STARLINK-6275,1 56772U 23078F   23288.77180411  .00000114  00000-0  17342-4 0  9996,2 56772  70.0016  52.9362 0002866 269.7655  90.3175 14.98327766 20989,6950.2,96.107,574.057,570.073,0.0
56772.0,STARLINK-6275,PAYLOAD,2023-10-16 13:45:00,14.98329422,0.0002963,70.0015,50.9166,273.968,86.114,-1.3197e-05,-2.5e-06,0.0,0 STARLINK-6275,1 56772U 23078F   23289.57292383 -.00000250  00000-0 -13197-4 0  9994,2 56772  70.0015  50.9166 0002963 273.9680  86.1140 14.98329422 21102,6950.195,96.107,574.119,570.0,0.0
56772.0,STARLINK-6275,PAYLOAD,2023-10-16 16:57:15,14.98360444,0.0002755,70.0016,50.5804,267.5678,92.5165,-0.00042747,-5.194e-05,0.0,0 STARLINK-6275,1 56772U 23078F   23289.70643459 -.00005194  00000-0 -42747-3 0  9997,2 56772  70.0016  50.5804 0002755 267.5678  92.5165 14.98360444 21380,6950.099,96.105,573.878,570.049,0.0
56772.0,STARLINK-6275,PAYLOAD,2023-10-17 10:34:45,14.98324498,0.0003034,70.0015,48.7283,270.6341,89.447,3.7064e-05,3.49e-06,0.0,0 STARLINK-6275,1 56772U 23078F   23290.44080507  .00000349  00000-0  37064-4 0  9991,2 56772  70.0015  48.7283 0003034 270.6341  89.4470 14.98324498 21497,6950.21,96.107,574.184,569.966,0.0
56772.0,STARLINK-6275,PAYLOAD,2023-10-17 12:10:53,14.98326518,0.0003049,70.0016,48.56,272.71,87.371,5.1441e-05,5.21e-06,0.0,0 STARLINK-6275,1 56772U 23078F   23290.50756383  .00000521  00000-0  51441-4 0  9997,2 56772  70.0016  48.5600 0003049 272.7100  87.3710 14.98326518 21243,6950.204,96.107,574.188,569.95,0.0
56772.0,STARLINK-6275,PAYLOAD,2023-10-18 00:59:57,14.98344204,0.000304,70.0015,47.2134,274.0273,86.0539,-0.00017243,-2.151e-05,0.0,0 STARLINK-6275,1 56772U 23078F   23291.04163711 -.00002151  00000-0 -17243-3 0  9998,2 56772  70.0015  47.2134 0003040 274.0273  86.0539 14.98344204 21581,6950.149,96.106,574.127,569.901,0.0
